     2              NAVIGATION DATA                         RINEX VERSION / TYPE
CCRINEXN V1.6.0 UX  CDDIS               21-MAY-18 23:30     PGM / RUN BY / DATE
IGS BROADCAST EPHEMERIS FILE                                COMMENT
    0.7451D-08  0.2235D-07 -0.5960D-07 -0.1192D-06          ION ALPHA
    0.8602D+05  0.8192D+05 -0.1311D+06 -0.5243D+06          ION BETA
   -0.931322574615D-09 0.000000000000D+00   319488     2002 DELTA-UTC: A0,A1,T,W
    18                                                      LEAP SECONDS
                                                            END OF HEADER
25 18  5 21  9 30  0.0-0.588447554037D-03-0.592237370256D-11 0.000000000000D+00
    0.146000000000D+03 0.407539062500D+02 0.414856566156D-08-0.443523581189D+00
    0.222679227591D-05 0.749213091331D-02 0.810530036688D-05 0.515364780057D+04
    0.120600000000D+06 0.195577740669D-07 0.156491245565D+01 0.105239450931D-06
    0.974103365532D+00 0.230925781250D+03 0.859934257931D+00-0.804295709176D-08
   -0.197151069276D-09 0.100000000000D+01 0.200200000000D+04 0.000000000000D+00
    0.204800000000D+04 0.000000000000D+00 0.605359673500D-08 0.146000000000D+03
    0.115212000000D+06 0.400000000000D+01 0.000000000000D+00 0.000000000000D+00
26 18  5 21  9 30  0.0-0.142135511851D-03 0.126405552692D-10 0.000000000000D+00
    0.146000000000D+03 0.570039062500D+02 0.439786176002D-08-0.982880762095D+00
    0.296439975500D-05 0.279123091605D-02 0.756513327360D-05 0.515366356381D+04
    0.120600000000D+06 0.493600964546D-07 0.154305535065D+01-0.679865479469D-07
    0.955650529423D+00 0.233292968750D+03 0.128655187942D+00-0.804527861703D-08
   -0.218937691062D-09 0.100000000000D+01 0.200200000000D+04 0.000000000000D+00
    0.256000000000D+03 0.000000000000D+00 0.745058059692D-08 0.146000000000D+03
    0.115212000000D+06 0.400000000000D+01 0.000000000000D+00 0.000000000000D+00
29 18  5 21  9 30  0.0 0.446347927209D-03-0.645883346806D-11 0.000000000000D+00
    0.146000000000D+03 0.148398437500D+02 0.400088093847D-08-0.178106793821D+01
    0.800937414169D-06 0.758915615734D-03 0.471062958240D-05 0.515369503992D+04
    0.120600000000D+06 0.186264514923D-07 0.266955749612D+01 0.465661287308D-08
    0.984121688207D+00 0.299929687500D+03 0.111947100203D+01-0.803045657106D-08
    0.123755154899D-09 0.100000000000D+01 0.200200000000D+04 0.000000000000D+00
    0.102400000000D+04 0.000000000000D+00-0.102445483208D-07 0.146000000000D+03
    0.115260000000D+06 0.400000000000D+01 0.000000000000D+00 0.000000000000D+00
30 18  5 21  9 30  0.0 0.717302318662D-04-0.427036184192D-11 0.000000000000D+00
    0.146000000000D+03 0.134375000000D+02 0.510931996654D-08 0.724069128706D+00
    0.657513737678D-06 0.340631767176D-02 0.778213143349D-05 0.515373486575D+04
    0.120600000000D+06 0.353902578354D-07 0.565664394924D+00-0.167638063431D-07
    0.944502255407D+00 0.219585937500D+03-0.308856493145D+01-0.835689874012D-08
   -0.557523223080D-09 0.100000000000D+01 0.200200000000D+04 0.000000000000D+00
    0.102400000000D+04 0.000000000000D+00 0.372529029846D-08 0.146000000000D+03
    0.117726000000D+06 0.400000000000D+01 0.000000000000D+00 0.000000000000D+00
31 18  5 21  9 30  0.0 0.120163225802D-03-0.265742983174D-11 0.000000000000D+00
    0.146000000000D+03 0.137617187500D+02 0.464715785849D-08 0.433043225829D+00
    0.809319317341D-06 0.874278234551D-02 0.756792724132D-05 0.515366127857D+04
    0.120600000000D+06 0.828877091408D-07 0.544468101728D+00 0.121071934700D-07
    0.963561076804D+00 0.235035156250D+03-0.129160602732D+00-0.817617692661D-08
   -0.496806408267D-09 0.100000000000D+01 0.200200000000D+04 0.000000000000D+00
    0.256000000000D+03 0.000000000000D+00-0.135041773319D-07 0.146000000000D+03
    0.115260000000D+06 0.400000000000D+01 0.000000000000D+00 0.000000000000D+00
32 18  5 21  9 30  0.0-0.506499200128D-03 0.532551780452D-11 0.000000000000D+00
    0.146000000000D+03 0.254882812500D+02 0.499467233387D-08-0.208701525293D+01
    0.137090682983D-05 0.211740884697D-02 0.736583024263D-05 0.515366162230D+04
    0.120600000000D+06 0.800937414169D-07-0.540416545718D+00 0.465661287308D-08
    0.957213598874D+00 0.235300781250D+03-0.256337226759D+01-0.821421422531D-08
    0.188400704788D-09 0.100000000000D+01 0.200200000000D+04 0.000000000000D+00
    0.512000000000D+03 0.000000000000D+00 0.465661287308D-09 0.146000000000D+03
    0.115212000000D+06 0.400000000000D+01 0.000000000000D+00 0.000000000000D+00
12 18  5 21  9 59 44.0 0.332403462380D-03-0.238742359215D-11 0.000000000000D+00
    0.350000000000D+02 0.571875000000D+02 0.382230203044D-08 0.283453093542D+00
    0.304169952869D-05 0.720538501628D-02 0.902265310287D-05 0.515359254456D+04
    0.122384000000D+06-0.106170773506D-06 0.162461084505D+01 0.143423676491D-06
    0.986451298936D+00 0.218906250000D+03 0.982059779783D+00-0.782425413348D-08
   -0.185007703601D-09 0.100000000000D+01 0.200200000000D+04 0.000000000000D+00
    0.200000000000D+01 0.000000000000D+00-0.125728547573D-07 0.350000000000D+02
    0.115230000000D+06 0.000000000000D+00 0.000000000000D+00 0.000000000000D+00
14 18  5 21  9 59 44.0-0.970042310655D-04-0.227373675443D-12 0.000000000000D+00
    0.200000000000D+01 0.295000000000D+02 0.487698903484D-08-0.291302900856D+01
    0.149384140968D-05 0.986690574791D-02 0.709667801857D-05 0.515358228683D+04
    0.122384000000D+06 0.227242708206D-06-0.455632211185D+00-0.104308128357D-06
    0.961181428425D+00 0.240875000000D+03-0.195248590542D+01-0.804640620800D-08
    0.146077511198D-09 0.100000000000D+01 0.200200000000D+04 0.000000000000D+00
    0.200000000000D+01 0.000000000000D+00-0.977888703346D-08 0.200000000000D+01
    0.115230000000D+06 0.000000000000D+00 0.000000000000D+00 0.000000000000D+00
18 18  5 21  9 59 44.0 0.117416493595D-04 0.477484718431D-11 0.000000000000D+00
    0.500000000000D+01-0.862500000000D+02 0.483663020745D-08 0.129320137606D+01
   -0.464543700218D-05 0.145255228272D-01 0.599399209023D-05 0.515365865326D+04
    0.122384000000D+06-0.324100255966D-06-0.266926728755D+01-0.130385160446D-06
    0.949737330429D+00 0.259812500000D+03 0.130388177522D+01-0.855178505788D-08
   -0.178578870441D-10 0.100000000000D+01 0.200200000000D+04 0.000000000000D+00
    0.200000000000D+01 0.000000000000D+00-0.698491930962D-08 0.500000000000D+01
    0.121560000000D+06 0.000000000000D+00 0.000000000000D+00 0.000000000000D+00
21 18  5 21  9 59 44.0-0.392241403461D-03 0.500222085975D-11 0.000000000000D+00
    0.430000000000D+02-0.745000000000D+02 0.496056395960D-08-0.236631300301D+00
   -0.395625829697D-05 0.244094335940D-01 0.602938234806D-05 0.515370571709D+04
    0.122384000000D+06-0.433996319771D-06-0.267633622620D+01 0.119209289551D-06
    0.943981925436D+00 0.259875000000D+03-0.155708818167D+01-0.880429507077D-08
    0.126790994370D-09 0.100000000000D+01 0.200200000000D+04 0.000000000000D+00
    0.200000000000D+01 0.000000000000D+00-0.102445483208D-07 0.430000000000D+02
    0.116430000000D+06 0.000000000000D+00 0.000000000000D+00 0.000000000000D+00
27 18  5 21  9 59 44.0 0.368554610759D-03-0.102318153950D-11 0.000000000000D+00
    0.360000000000D+02 0.201250000000D+02 0.409909931537D-08-0.252970451365D+01
    0.110641121864D-05 0.594429275952D-02 0.404193997383D-05 0.515368406296D+04
    0.122384000000D+06 0.372529029846D-07 0.260493914425D+01 0.149011611938D-07
    0.977542304846D+00 0.312156250000D+03 0.418295694963D+00-0.802426281418D-08
    0.206794328100D-09 0.100000000000D+01 0.200200000000D+04 0.000000000000D+00
    0.200000000000D+01 0.000000000000D+00 0.139698386192D-08 0.360000000000D+02
    0.116100000000D+06 0.000000000000D+00 0.000000000000D+00 0.000000000000D+00
 1 18  5 21 10  0  0.0-0.495496205986D-04-0.295585778076D-11 0.000000000000D+00
    0.430000000000D+02-0.897500000000D+02 0.430696511667D-08 0.157211349142D+01
   -0.470504164696D-05 0.778686581179D-02 0.630691647530D-05 0.515367333031D+04
    0.122400000000D+06-0.128522515297D-06-0.262227433143D+01 0.130385160446D-06
    0.971350112014D+00 0.262781250000D+03 0.625220230269D+00-0.819569852660D-08
   -0.775032283206D-10 0.100000000000D+01 0.200200000000D+04 0.000000000000D+00
    0.200000000000D+01 0.000000000000D+00 0.558793544769D-08 0.430000000000D+02
    0.115218000000D+06 0.400000000000D+01 0.000000000000D+00 0.000000000000D+00
 2 18  5 21 10  0  0.0 0.109157990664D-03-0.111413100967D-10 0.000000000000D+00
    0.350000000000D+02-0.920000000000D+02 0.465733685392D-08 0.190622817243D+01
   -0.495277345181D-05 0.178789779311D-01 0.466965138912D-05 0.515374387360D+04
    0.122400000000D+06 0.409781932831D-07-0.268325900471D+01-0.398606061935D-06
    0.950435881127D+00 0.283937500000D+03-0.185670704079D+01-0.827141596625D-08
    0.246438836595D-10 0.100000000000D+01 0.200200000000D+04 0.000000000000D+00
    0.200000000000D+01 0.000000000000D+00-0.204890966415D-07 0.350000000000D+02
    0.115200000000D+06 0.400000000000D+01 0.000000000000D+00 0.000000000000D+00
 3 18  5 21 10  0  0.0 0.744820572436D-04 0.716227077646D-11 0.000000000000D+00
    0.870000000000D+02-0.351250000000D+02 0.446518599292D-08 0.701555357088D+00
   -0.202842056751D-05 0.138396024704D-02 0.112429261208D-04 0.515376074982D+04
    0.122400000000D+06-0.931322574616D-08-0.157940616438D+01 0.428408384323D-07
    0.960638246942D+00 0.165843750000D+03 0.426418764110D+00-0.793854495798D-08
    0.299655338990D-09 0.100000000000D+01 0.200200000000D+04 0.000000000000D+00
    0.200000000000D+01 0.000000000000D+00 0.232830643654D-08 0.870000000000D+02
    0.115218000000D+06 0.400000000000D+01 0.000000000000D+00 0.000000000000D+00
